[{"OBJECT_NAME":"STARLINK-32805","OBJECT_ID":"2025-014F","EPOCH":"2026-03-09T22:56:23.105472","MEAN_MOTION":15.27594193,"ECCENTRICITY":0.0001272,"INCLINATION":43.0028,"RA_OF_ASC_NODE":153.277,"ARG_OF_PERICENTER":281.2805,"MEAN_ANOMALY":78.7904,"EPHEMERIS_TYPE":0,"CLASSIFICATION_TYPE":"U","NORAD_CAT_ID":62740,"ELEMENT_SET_NO":999,"REV_AT_EPOCH":6329,"BSTAR":0.0010968222,"MEAN_MOTION_DOT":0.00030056,"MEAN_MOTION_DDOT":0},{"OBJECT_NAME":"DMSP 5D-2 F13 DEB","OBJECT_ID":"1995-015HL","EPOCH":"2026-02-09T02:06:19.247328","MEAN_MOTION":15.12822218,"ECCENTRICITY":0.00117732,"INCLINATION":98.8603,"RA_OF_ASC_NODE":96.8879,"ARG_OF_PERICENTER":223.037,"MEAN_ANOMALY":136.9936,"EPHEMERIS_TYPE":0,"CLASSIFICATION_TYPE":"U","NORAD_CAT_ID":42294,"ELEMENT_SET_NO":999,"REV_AT_EPOCH":55633,"BSTAR":0.010466292,"MEAN_MOTION_DOT":0.00188804,"MEAN_MOTION_DDOT":0}]
